OBJECT_NAME,OBJECT_ID,EPOCH,MEAN_MOTION,ECCENTRICITY,INCLINATION,RA_OF_ASC_NODE,ARG_OF_PERICENTER,MEAN_ANOMALY,EPHEMERIS_TYPE,CLASSIFICATION_TYPE,NORAD_CAT_ID,ELEMENT_SET_NO,REV_AT_EPOCH,BSTAR,MEAN_MOTION_DOT,MEAN_MOTION_DDOT
HAWK-5A,2022-057AB,2026-06-09T22:45:19.469664,15.51132826,.0005941,97.6594,319.3311,100.5201,259.6720,0,U,52757,999,22522,.31770187E-3,.18459E-3,0
HAWK-6B,2023-011A,2026-06-10T02:25:02.434368,15.22865339,.00036094,40.4991,33.4028,322.2576,37.7979,0,U,55324,999,18676,.18174956E-3,.4153E-4,0
HAWK-6C,2023-011C,2026-06-09T09:05:18.780576,15.22867772,.00043141,40.4982,34.4522,308.3612,51.6810,0,U,55326,999,18666,.18394517E-3,.4206E-4,0
HAWK-6A,2023-011D,2026-06-10T02:24:09.192960,15.22867328,.00038528,40.4993,31.8686,309.2271,50.8196,0,U,55327,999,18677,.18630566E-3,.4263E-4,0
HAWK-7A,2023-054P,2026-06-09T23:15:30.365280,15.27279134,.00045394,97.2724,48.4915,77.9623,282.2125,0,U,56191,999,17592,.58357151E-4,.1488E-4,0
HAWK-7B,2023-054R,2026-06-09T15:23:39.216768,15.27284398,.000401,97.2740,46.4316,83.7392,276.4304,0,U,56193,999,17587,.19800235E-3,.5221E-4,0
HAWK-7C,2023-054Y,2026-06-10T03:58:15.705984,15.27287186,.00040518,97.2718,47.7135,74.5454,285.6233,0,U,56200,999,17595,.20494212E-3,.5407E-4,0
