HAWK-5A                 
1 52757U 22057AB  26160.94814201  .00018459  00000+0  31770-3 0  9993
2 52757  97.6594 319.3311 0005941 100.5201 259.6720 15.51132826225225
HAWK-6B                 
1 55324U 23011A   26161.10072262  .00004153  00000+0  18175-3 0  9999
2 55324  40.4991  33.4028 0003609 322.2576  37.7979 15.22865339186767
HAWK-6C                 
1 55326U 23011C   26160.37868959  .00004206  00000+0  18395-3 0  9998
2 55326  40.4982  34.4522 0004314 308.3612  51.6810 15.22867772186660
HAWK-6A                 
1 55327U 23011D   26161.10010640  .00004263  00000+0  18631-3 0  9993
2 55327  40.4993  31.8686 0003852 309.2271  50.8196 15.22867328186779
HAWK-7A                 
1 56191U 23054P   26160.96910145  .00001488  00000+0  58357-4 0  9998
2 56191  97.2724  48.4915 0004539  77.9623 282.2125 15.27279134175928
HAWK-7B                 
1 56193U 23054R   26160.64142612  .00005221  00000+0  19800-3 0  9999
2 56193  97.2740  46.4316 0004010  83.7392 276.4304 15.27284398175879
HAWK-7C                 
1 56200U 23054Y   26161.16545956  .00005407  00000+0  20494-3 0  9991
2 56200  97.2718  47.7135 0004051  74.5454 285.6233 15.27287186175958
